*******************************************************************************
 Revised: July 31, 2013                  Sun                                 10

 PHYSICAL PROPERTIES (updated 2018-Aug-15):
  GM, km^3/s^2          = 132712440041.93938  Mass, 10^24 kg        = ~1988500
  Vol. mean radius, km  = 695700              Volume, 10^12 km^3    = 1412000
  Solar radius (IAU)    = 696000 km           Mean density, g/cm^3  = 1.408
  Radius (photosphere)  = 696500 km           Angular diam at 1 AU  = 1919.3"
  Photosphere temp., K  = 6600 (bottom)       Photosphere temp., K  = 4400(top)
  Photospheric depth    = ~500 km             Chromospheric depth   = ~2500 km
  Flatness, f           = 0.00005             Adopted sid. rot. per.= 25.38 d
  Surface gravity       =  274.0 m/s^2        Escape speed, km/s    =  617.7
  Pole (RA,DEC), deg.   = (286.13, 63.87)     Obliquity to ecliptic = 7.25 deg.
  Solar constant (1 AU) = 1367.6 W/m^2        Luminosity, 10^24 J/s = 382.8
  Mass-energy conv rate = 4.260 x 10^9 kg/s   Effective temp, K     = 5772
  Sunspot cycle         = 11.4 yr             Cycle 24 sunspot min. = 2008 A.D.

  Motion relative to nearby stars = apex : R.A.= 271 deg.; DEC.= +30 deg.
                                    speed: 19.4 km/s (0.0112 au/day)
  Motion relative to 2.73K BB/CBR = apex : l= 264.7 +- 0.8; b= 48.2 +- 0.5 deg.
                                    speed: 369 +-11 km/s
*******************************************************************************


*******************************************************************************
Ephemeris / WWW_USER Sat Jan 28 00:11:35 2023 Pasadena, USA      / Horizons    
*******************************************************************************
Target body name: Sun (10)                        {source: DE441}
Center body name: Earth (399)                     {source: DE441}
Center-site name: (user defined site below)
*******************************************************************************
Start time      : A.D. 2000-Jan-01 00:00:00.0000 UT      
Stop  time      : A.D. 2099-Dec-31 00:00:00.0000 UT      
Step-size       : 1440 minutes
*******************************************************************************
Target pole/equ : IAU_SUN                         {East-longitude positive}
Target radii    : 696000.0 x 696000.0 x 696000.0 k{Equator, meridian, pole}    
Center geodetic : 11.5833000,48.1333000,1.014E-12 {E-lon(deg),Lat(deg),Alt(km)}
Center cylindric: 11.5833000,4264.69150,4726.7813 {E-lon(deg),Dxy(km),Dz(km)}
Center pole/equ : ITRF93                          {East-longitude positive}
Center radii    : 6378.1 x 6378.1 x 6356.8 km     {Equator, meridian, pole}    
Target primary  : Sun (R_eq= 696000.000) km
Vis. interferer : MOON (R_eq= 1737.400) km        {source: DE441}
Rel. light bend : Sun                             {source: DE441}
Rel. lght bnd GM: 1.3271E+11 km^3/s^2                                          
Atmos refraction: NO (AIRLESS)
RA format       : DEG
Time format     : BOTH
EOP file        : eop.230126.p230421                                           
EOP coverage    : DATA-BASED 1962-JAN-20 TO 2023-JAN-26. PREDICTS-> 2023-APR-20
Units conversion: 1 au= 149597870.700 km, c= 299792.458 km/s, 1 day= 86400.0 s 
Table cut-offs 1: Elevation (-90.0deg=NO ),Airmass (>38.000=NO), Daylight (NO )
Table cut-offs 2: Solar elongation (  0.0,180.0=NO ),Local Hour Angle( 0.0=NO )
Table cut-offs 3: RA/DEC angular rate (     0.0=NO )                           
*******************************************************************************
 Date__(UT)__HR:MN Date_________JDUT     R.A._(a-appar)_DEC.  L_Ap_Hour_Ang
***************************************************************************
$$SOE
 2090-Jun-23 00:00 2484590.500000000 A    92.27019  23.40603  -11.267750565
 2090-Jun-24 00:00 2484591.500000000 A    93.30995  23.38753  -11.271357958
 2090-Jun-25 00:00 2484592.500000000 A    94.34933  23.36217  -11.274938893
 2090-Jun-26 00:00 2484593.500000000 A    95.38820  23.32995  -11.278486087
 2090-Jun-27 00:00 2484594.500000000 A    96.42647  23.29090  -11.281992054
 2090-Jun-28 00:00 2484595.500000000 A    97.46400  23.24505  -11.285449135
 2090-Jun-29 00:00 2484596.500000000      98.50069  23.19240  -11.288849576
 2090-Jun-30 00:00 2484597.500000000      99.53639  23.13298  -11.292185654
 2090-Jul-01 00:00 2484598.500000000     100.57101  23.06682  -11.295449822
 2090-Jul-02 00:00 2484599.500000000     101.60443  22.99395  -11.298634859
 2090-Jul-03 00:00 2484600.500000000     102.63655  22.91439  -11.301733987
 2090-Jul-04 00:00 2484601.500000000     103.66729  22.82818  -11.304740928
 2090-Jul-05 00:00 2484602.500000000     104.69656  22.73534  -11.307649923
 2090-Jul-06 00:00 2484603.500000000     105.72428  22.63593  -11.310455711
 2090-Jul-07 00:00 2484604.500000000  m  106.75040  22.52998  -11.313153482
 2090-Jul-08 00:00 2484605.500000000  m  107.77484  22.41754  -11.315738830
 2090-Jul-09 00:00 2484606.500000000  m  108.79754  22.29864  -11.318207699
 2090-Jul-10 00:00 2484607.500000000  m  109.81844  22.17335  -11.320556330
 2090-Jul-11 00:00 2484608.500000000  m  110.83749  22.04171  -11.322781219
 2090-Jul-12 00:00 2484609.500000000  m  111.85462  21.90376  -11.324879065
 2090-Jul-13 00:00 2484610.500000000  m  112.86979  21.75957  -11.326846737
 2090-Jul-14 00:00 2484611.500000000  m  113.88296  21.60918  -11.328681242
 2090-Jul-15 00:00 2484612.500000000  m  114.89408  21.45264  -11.330379701
 2090-Jul-16 00:00 2484613.500000000  m  115.90311  21.29002  -11.331939338
 2090-Jul-17 00:00 2484614.500000000  m  116.91001  21.12138  -11.333357474
 2090-Jul-18 00:00 2484615.500000000  m  117.91475  20.94677  -11.334631523
 2090-Jul-19 00:00 2484616.500000000  m  118.91729  20.76625  -11.335758993
 2090-Jul-20 00:00 2484617.500000000  m  119.91760  20.57989  -11.336737481
 2090-Jul-21 00:00 2484618.500000000  m  120.91565  20.38777  -11.337564660
 2090-Jul-22 00:00 2484619.500000000  m  121.91140  20.18993  -11.338238254
 2090-Jul-23 00:00 2484620.500000000     122.90483  19.98647  -11.338756010
 2090-Jul-24 00:00 2484621.500000000     123.89589  19.77745  -11.339115650
 2090-Jul-25 00:00 2484622.500000000     124.88455  19.56295  -11.339314839
 2090-Jul-26 00:00 2484623.500000000     125.87077  19.34304  -11.339351155
 2090-Jul-27 00:00 2484624.500000000     126.85450  19.11781  -11.339222116
 2090-Jul-28 00:00 2484625.500000000     127.83570  18.88733  -11.338925259
 2090-Jul-29 00:00 2484626.500000000     128.81434  18.65168  -11.338458279
 2090-Jul-30 00:00 2484627.500000000     129.79038  18.41095  -11.337819191
 2090-Jul-31 00:00 2484628.500000000     130.76381  18.16521  -11.337006472
 2090-Aug-01 00:00 2484629.500000000     131.73463  17.91453  -11.336019156
 2090-Aug-02 00:00 2484630.500000000     132.70282  17.65901  -11.334856860
 2090-Aug-03 00:00 2484631.500000000     133.66841  17.39872  -11.333519762
 2090-Aug-04 00:00 2484632.500000000     134.63139  17.13375  -11.332008557
 2090-Aug-05 00:00 2484633.500000000     135.59178  16.86417  -11.330324388
 2090-Aug-06 00:00 2484634.500000000  m  136.54961  16.59008  -11.328468796
 2090-Aug-07 00:00 2484635.500000000  m  137.50490  16.31155  -11.326443662
 2090-Aug-08 00:00 2484636.500000000  m  138.45767  16.02867  -11.324251163
 2090-Aug-09 00:00 2484637.500000000  m  139.40796  15.74152  -11.321893730
 2090-Aug-10 00:00 2484638.500000000  m  140.35581  15.45018  -11.319374012
 2090-Aug-11 00:00 2484639.500000000  m  141.30126  15.15473  -11.316694841
 2090-Aug-12 00:00 2484640.500000000  m  142.24435  14.85526  -11.313859202
 2090-Aug-13 00:00 2484641.500000000  m  143.18514  14.55184  -11.310870202
 2090-Aug-14 00:00 2484642.500000000  m  144.12367  14.24455  -11.307731052
 2090-Aug-15 00:00 2484643.500000000  m  145.06000  13.93349  -11.304445046
 2090-Aug-16 00:00 2484644.500000000  m  145.99418  13.61873  -11.301015543
 2090-Aug-17 00:00 2484645.500000000  m  146.92626  13.30036  -11.297445956
 2090-Aug-18 00:00 2484646.500000000  m  147.85630  12.97846  -11.293739732
 2090-Aug-19 00:00 2484647.500000000  m  148.78435  12.65313  -11.289900321
 2090-Aug-20 00:00 2484648.500000000  m  149.71047  12.32444  -11.285931149
 2090-Aug-21 00:00 2484649.500000000  m  150.63470  11.99249  -11.281835569
 2090-Aug-22 00:00 2484650.500000000     151.55708  11.65737  -11.277616805
 2090-Aug-23 00:00 2484651.500000000     152.47765  11.31917  -11.273277904
 2090-Aug-24 00:00 2484652.500000000     153.39646  10.97798  -11.268821707
 2090-Aug-25 00:00 2484653.500000000     154.31354  10.63391  -11.264250870
 2090-Aug-26 00:00 2484654.500000000     155.22892  10.28704  -11.259567947
 2090-Aug-27 00:00 2484655.500000000     156.14265   9.93746  -11.254775531
 2090-Aug-28 00:00 2484656.500000000     157.05477   9.58526  -11.249876409
 2090-Aug-29 00:00 2484657.500000000     157.96535   9.23054  -11.244873708
 2090-Aug-30 00:00 2484658.500000000     158.87444   8.87340  -11.239770969
 2090-Aug-31 00:00 2484659.500000000     159.78209   8.51391  -11.234572168
 2090-Sep-01 00:00 2484660.500000000     160.68839   8.15218  -11.229281696
 2090-Sep-02 00:00 2484661.500000000     161.59338   7.78829  -11.223904301
 2090-Sep-03 00:00 2484662.500000000     162.49714   7.42234  -11.218445037
 2090-Sep-04 00:00 2484663.500000000  m  163.39976   7.05441  -11.212909210
 2090-Sep-05 00:00 2484664.500000000  m  164.30130   6.68459  -11.207302336
 2090-Sep-06 00:00 2484665.500000000  m  165.20185   6.31297  -11.201630102
 2090-Sep-07 00:00 2484666.500000000  m  166.10151   5.93964  -11.195898340
 2090-Sep-08 00:00 2484667.500000000  m  167.00035   5.56467  -11.190113001
 2090-Sep-09 00:00 2484668.500000000  m  167.89847   5.18817  -11.184280127
 2090-Sep-10 00:00 2484669.500000000  m  168.79597   4.81021  -11.178405832
 2090-Sep-11 00:00 2484670.500000000  m  169.69293   4.43087  -11.172496275
 2090-Sep-12 00:00 2484671.500000000  m  170.58947   4.05025  -11.166557638
